<?xml version="1.0" encoding="UTF-8"?>
<ndm xmlns:xsi="http://www.w3.org/2001/XMLSchema-instance" xsi:noNamespaceSchemaLocation="https://sanaregistry.org/r/ndmxml_unqualified/ndmxml-2.0.0-master-2.0.xsd">
<omm id="CCSDS_OMM_VERS" version="2.0">
<header><CREATION_DATE/><ORIGINATOR/></header><body><segment><metadata><OBJECT_NAME>KUIPER-00016</OBJECT_NAME><OBJECT_ID>2025-088J</OBJECT_ID><CENTER_NAME>EARTH</CENTER_NAME><REF_FRAME>TEME</REF_FRAME><TIME_SYSTEM>UTC</TIME_SYSTEM><MEAN_ELEMENT_THEORY>SGP4</MEAN_ELEMENT_THEORY></metadata><data><meanElements><EPOCH>2025-12-31T12:07:09.541920</EPOCH><MEAN_MOTION>14.79899109</MEAN_MOTION><ECCENTRICITY>.00119823</ECCENTRICITY><INCLINATION>51.9022</INCLINATION><RA_OF_ASC_NODE>53.1099</RA_OF_ASC_NODE><ARG_OF_PERICENTER>197.6292</ARG_OF_PERICENTER><MEAN_ANOMALY>162.4256</MEAN_ANOMALY></meanElements><tleParameters><EPHEMERIS_TYPE>0</EPHEMERIS_TYPE><CLASSIFICATION_TYPE>U</CLASSIFICATION_TYPE><NORAD_CAT_ID>63732</NORAD_CAT_ID><ELEMENT_SET_NO>999</ELEMENT_SET_NO><REV_AT_EPOCH>3723</REV_AT_EPOCH><BSTAR>-.7646143E-4</BSTAR><MEAN_MOTION_DOT>-.807E-5</MEAN_MOTION_DOT><MEAN_MOTION_DDOT>0</MEAN_MOTION_DDOT></tleParameters></data></segment></body></omm>
<omm id="CCSDS_OMM_VERS" version="2.0">
<header><CREATION_DATE/><ORIGINATOR/></header><body><segment><metadata><OBJECT_NAME>KUIPER-00018</OBJECT_NAME><OBJECT_ID>2025-088K</OBJECT_ID><CENTER_NAME>EARTH</CENTER_NAME><REF_FRAME>TEME</REF_FRAME><TIME_SYSTEM>UTC</TIME_SYSTEM><MEAN_ELEMENT_THEORY>SGP4</MEAN_ELEMENT_THEORY></metadata><data><meanElements><EPOCH>2025-12-31T12:24:44.893728</EPOCH><MEAN_MOTION>14.79935390</MEAN_MOTION><ECCENTRICITY>.00122608</ECCENTRICITY><INCLINATION>51.9043</INCLINATION><RA_OF_ASC_NODE>42.0109</RA_OF_ASC_NODE><ARG_OF_PERICENTER>223.1340</ARG_OF_PERICENTER><MEAN_ANOMALY>136.8663</MEAN_ANOMALY></meanElements><tleParameters><EPHEMERIS_TYPE>0</EPHEMERIS_TYPE><CLASSIFICATION_TYPE>U</CLASSIFICATION_TYPE><NORAD_CAT_ID>63733</NORAD_CAT_ID><ELEMENT_SET_NO>999</ELEMENT_SET_NO><REV_AT_EPOCH>3739</REV_AT_EPOCH><BSTAR>.22735168E-3</BSTAR><MEAN_MOTION_DOT>.1512E-4</MEAN_MOTION_DOT><MEAN_MOTION_DDOT>0</MEAN_MOTION_DDOT></tleParameters></data></segment></body></omm>
<omm id="CCSDS_OMM_VERS" version="2.0">
<header><CREATION_DATE/><ORIGINATOR/></header><body><segment><metadata><OBJECT_NAME>KUIPER-00019</OBJECT_NAME><OBJECT_ID>2025-088L</OBJECT_ID><CENTER_NAME>EARTH</CENTER_NAME><REF_FRAME>TEME</REF_FRAME><TIME_SYSTEM>UTC</TIME_SYSTEM><MEAN_ELEMENT_THEORY>SGP4</MEAN_ELEMENT_THEORY></metadata><data><meanElements><EPOCH>2025-12-31T12:26:24.176832</EPOCH><MEAN_MOTION>14.79982231</MEAN_MOTION><ECCENTRICITY>.00084373</ECCENTRICITY><INCLINATION>51.9011</INCLINATION><RA_OF_ASC_NODE>40.5493</RA_OF_ASC_NODE><ARG_OF_PERICENTER>232.5613</ARG_OF_PERICENTER><MEAN_ANOMALY>127.4583</MEAN_ANOMALY></meanElements><tleParameters><EPHEMERIS_TYPE>0</EPHEMERIS_TYPE><CLASSIFICATION_TYPE>U</CLASSIFICATION_TYPE><NORAD_CAT_ID>63734</NORAD_CAT_ID><ELEMENT_SET_NO>999</ELEMENT_SET_NO><REV_AT_EPOCH>3741</REV_AT_EPOCH><BSTAR>.847686E-3</BSTAR><MEAN_MOTION_DOT>.6256E-4</MEAN_MOTION_DOT><MEAN_MOTION_DDOT>0</MEAN_MOTION_DDOT></tleParameters></data></segment></body></omm>
<omm id="CCSDS_OMM_VERS" version="2.0">
<header><CREATION_DATE/><ORIGINATOR/></header><body><segment><metadata><OBJECT_NAME>KUIPER-00020</OBJECT_NAME><OBJECT_ID>2025-088M</OBJECT_ID><CENTER_NAME>EARTH</CENTER_NAME><REF_FRAME>TEME</REF_FRAME><TIME_SYSTEM>UTC</TIME_SYSTEM><MEAN_ELEMENT_THEORY>SGP4</MEAN_ELEMENT_THEORY></metadata><data><meanElements><EPOCH>2025-12-31T12:21:11.211840</EPOCH><MEAN_MOTION>14.79878275</MEAN_MOTION><ECCENTRICITY>.00078868</ECCENTRICITY><INCLINATION>51.9013</INCLINATION><RA_OF_ASC_NODE>44.5494</RA_OF_ASC_NODE><ARG_OF_PERICENTER>215.9716</ARG_OF_PERICENTER><MEAN_ANOMALY>144.0717</MEAN_ANOMALY></meanElements><tleParameters><EPHEMERIS_TYPE>0</EPHEMERIS_TYPE><CLASSIFICATION_TYPE>U</CLASSIFICATION_TYPE><NORAD_CAT_ID>63735</NORAD_CAT_ID><ELEMENT_SET_NO>999</ELEMENT_SET_NO><REV_AT_EPOCH>3756</REV_AT_EPOCH><BSTAR>.16571252E-3</BSTAR><MEAN_MOTION_DOT>.1039E-4</MEAN_MOTION_DOT><MEAN_MOTION_DDOT>0</MEAN_MOTION_DDOT></tleParameters></data></segment></body></omm>
<omm id="CCSDS_OMM_VERS" version="2.0">
<header><CREATION_DATE/><ORIGINATOR/></header><body><segment><metadata><OBJECT_NAME>KUIPER-00021</OBJECT_NAME><OBJECT_ID>2025-088N</OBJECT_ID><CENTER_NAME>EARTH</CENTER_NAME><REF_FRAME>TEME</REF_FRAME><TIME_SYSTEM>UTC</TIME_SYSTEM><MEAN_ELEMENT_THEORY>SGP4</MEAN_ELEMENT_THEORY></metadata><data><meanElements><EPOCH>2025-12-31T18:47:42.415584</EPOCH><MEAN_MOTION>14.79889202</MEAN_MOTION><ECCENTRICITY>.0005937</ECCENTRICITY><INCLINATION>51.9025</INCLINATION><RA_OF_ASC_NODE>44.3633</RA_OF_ASC_NODE><ARG_OF_PERICENTER>210.4309</ARG_OF_PERICENTER><MEAN_ANOMALY>149.6310</MEAN_ANOMALY></meanElements><tleParameters><EPHEMERIS_TYPE>0</EPHEMERIS_TYPE><CLASSIFICATION_TYPE>U</CLASSIFICATION_TYPE><NORAD_CAT_ID>63736</NORAD_CAT_ID><ELEMENT_SET_NO>999</ELEMENT_SET_NO><REV_AT_EPOCH>3742</REV_AT_EPOCH><BSTAR>.45095505E-3</BSTAR><MEAN_MOTION_DOT>.3214E-4</MEAN_MOTION_DOT><MEAN_MOTION_DDOT>0</MEAN_MOTION_DDOT></tleParameters></data></segment></body></omm>
<omm id="CCSDS_OMM_VERS" version="2.0">
<header><CREATION_DATE/><ORIGINATOR/></header><body><segment><metadata><OBJECT_NAME>KUIPER-00023</OBJECT_NAME><OBJECT_ID>2025-088P</OBJECT_ID><CENTER_NAME>EARTH</CENTER_NAME><REF_FRAME>TEME</REF_FRAME><TIME_SYSTEM>UTC</TIME_SYSTEM><MEAN_ELEMENT_THEORY>SGP4</MEAN_ELEMENT_THEORY></metadata><data><meanElements><EPOCH>2025-12-31T09:02:55.932000</EPOCH><MEAN_MOTION>14.79934065</MEAN_MOTION><ECCENTRICITY>.0010441</ECCENTRICITY><INCLINATION>51.9008</INCLINATION><RA_OF_ASC_NODE>47.6248</RA_OF_ASC_NODE><ARG_OF_PERICENTER>230.1790</ARG_OF_PERICENTER><MEAN_ANOMALY>129.8254</MEAN_ANOMALY></meanElements><tleParameters><EPHEMERIS_TYPE>0</EPHEMERIS_TYPE><CLASSIFICATION_TYPE>U</CLASSIFICATION_TYPE><NORAD_CAT_ID>63737</NORAD_CAT_ID><ELEMENT_SET_NO>999</ELEMENT_SET_NO><REV_AT_EPOCH>3764</REV_AT_EPOCH><BSTAR>.42654351E-4</BSTAR><MEAN_MOTION_DOT>.102E-5</MEAN_MOTION_DOT><MEAN_MOTION_DDOT>0</MEAN_MOTION_DDOT></tleParameters></data></segment></body></omm>
<omm id="CCSDS_OMM_VERS" version="2.0">
<header><CREATION_DATE/><ORIGINATOR/></header><body><segment><metadata><OBJECT_NAME>KUIPER-00024</OBJECT_NAME><OBJECT_ID>2025-088Q</OBJECT_ID><CENTER_NAME>EARTH</CENTER_NAME><REF_FRAME>TEME</REF_FRAME><TIME_SYSTEM>UTC</TIME_SYSTEM><MEAN_ELEMENT_THEORY>SGP4</MEAN_ELEMENT_THEORY></metadata><data><meanElements><EPOCH>2025-12-31T12:36:35.752320</EPOCH><MEAN_MOTION>14.79947845</MEAN_MOTION><ECCENTRICITY>.0000714</ECCENTRICITY><INCLINATION>51.9045</INCLINATION><RA_OF_ASC_NODE>34.5156</RA_OF_ASC_NODE><ARG_OF_PERICENTER>86.8404</ARG_OF_PERICENTER><MEAN_ANOMALY>273.2640</MEAN_ANOMALY></meanElements><tleParameters><EPHEMERIS_TYPE>0</EPHEMERIS_TYPE><CLASSIFICATION_TYPE>U</CLASSIFICATION_TYPE><NORAD_CAT_ID>63738</NORAD_CAT_ID><ELEMENT_SET_NO>999</ELEMENT_SET_NO><REV_AT_EPOCH>3796</REV_AT_EPOCH><BSTAR>.12821114E-2</BSTAR><MEAN_MOTION_DOT>.957E-4</MEAN_MOTION_DOT><MEAN_MOTION_DDOT>0</MEAN_MOTION_DDOT></tleParameters></data></segment></body></omm>
<omm id="CCSDS_OMM_VERS" version="2.0">
<header><CREATION_DATE/><ORIGINATOR/></header><body><segment><metadata><OBJECT_NAME>KUIPER-00025</OBJECT_NAME><OBJECT_ID>2025-088R</OBJECT_ID><CENTER_NAME>EARTH</CENTER_NAME><REF_FRAME>TEME</REF_FRAME><TIME_SYSTEM>UTC</TIME_SYSTEM><MEAN_ELEMENT_THEORY>SGP4</MEAN_ELEMENT_THEORY></metadata><data><meanElements><EPOCH>2025-12-31T12:22:11.511264</EPOCH><MEAN_MOTION>14.80060447</MEAN_MOTION><ECCENTRICITY>.00011604</ECCENTRICITY><INCLINATION>51.9023</INCLINATION><RA_OF_ASC_NODE>43.0703</RA_OF_ASC_NODE><ARG_OF_PERICENTER>30.6658</ARG_OF_PERICENTER><MEAN_ANOMALY>329.4372</MEAN_ANOMALY></meanElements><tleParameters><EPHEMERIS_TYPE>0</EPHEMERIS_TYPE><CLASSIFICATION_TYPE>U</CLASSIFICATION_TYPE><NORAD_CAT_ID>63739</NORAD_CAT_ID><ELEMENT_SET_NO>999</ELEMENT_SET_NO><REV_AT_EPOCH>3770</REV_AT_EPOCH><BSTAR>.83027539E-3</BSTAR><MEAN_MOTION_DOT>.6133E-4</MEAN_MOTION_DOT><MEAN_MOTION_DDOT>0</MEAN_MOTION_DDOT></tleParameters></data></segment></body></omm>

</ndm>
