KUIPER-00016            
1 63732U 25088J   25365.50497155 -.00000807  00000+0 -76461-4 0  9995
2 63732  51.9022  53.1099 0011982 197.6292 162.4256 14.79899109 37234
KUIPER-00018            
1 63733U 25088K   25365.51718627  .00001512  00000+0  22735-3 0  9993
2 63733  51.9043  42.0109 0012260 223.1340 136.8663 14.79935390 37393
KUIPER-00019            
1 63734U 25088L   25365.51833538  .00006256  00000+0  84769-3 0  9998
2 63734  51.9011  40.5493 0008437 232.5613 127.4583 14.79982231 37412
KUIPER-00020            
1 63735U 25088M   25365.51471310  .00001039  00000+0  16571-3 0  9995
2 63735  51.9013  44.5494 0007886 215.9716 144.0717 14.79878275 37568
KUIPER-00021            
1 63736U 25088N   25365.78312981  .00003214  00000+0  45096-3 0  9994
2 63736  51.9025  44.3633 0005937 210.4309 149.6310 14.79889202 37425
KUIPER-00023            
1 63737U 25088P   25365.37703625  .00000102  00000+0  42654-4 0  9990
2 63737  51.9008  47.6248 0010441 230.1790 129.8254 14.79934065 37643
KUIPER-00024            
1 63738U 25088Q   25365.52541380  .00009570  00000+0  12821-2 0  9995
2 63738  51.9045  34.5156 0000714  86.8404 273.2640 14.79947845 37966
KUIPER-00025            
1 63739U 25088R   25365.51541101  .00006133  00000+0  83028-3 0  9996
2 63739  51.9023  43.0703 0001160  30.6658 329.4372 14.80060447 37704
